GLOBALSTAR M079         
1 37188U 10054A   26060.37652672 -.00000092  00000+0  63556-4 0  9999
2 37188  52.0032  76.8601 0000638 115.3897 350.9740 12.62263782708934
GLOBALSTAR M074         
1 37189U 10054B   26060.23898449 -.00000091  00000+0  69929-4 0  9998
2 37189  52.0011  76.5621 0000334 132.9178 307.3702 12.62266300709520
GLOBALSTAR M076         
1 37190U 10054C   26060.43859582 -.00000090  00000+0  75002-4 0  9995
2 37190  52.0028  76.1482 0000554 137.3178  10.4671 12.62270379709263
GLOBALSTAR M077         
1 37191U 10054D   26060.27611072 -.00000067  00000+0  19560-3 0  9998
2 37191  51.9949  93.3142 0000683 146.8272 294.2473 11.68176324708532
GLOBALSTAR M075         
1 37192U 10054E   26060.35781110 -.00000086  00000+0  96467-4 0  9992
2 37192  51.9934 118.5092 0000521 112.5951 328.2824 12.62264719708322
GLOBALSTAR M073         
1 37193U 10054F   26060.29186441 -.00000104  00000+0 -19610-5 0  9990
2 37193  52.0077  32.7252 0000523 105.8052  34.1012 12.62269643710301
GLOBALSTAR M083         
1 37739U 11033A   26060.22910745 -.00000079  00000+0  13652-3 0  9997
2 37739  51.9884 341.2954 0000725  88.2265  67.9932 12.62267294679312
GLOBALSTAR M088         
1 37740U 11033B   26059.96718539 -.00000078  00000+0  14200-3 0  9994
2 37740  52.0191 248.2587 0000874  90.2099  74.1659 12.62262020674827
GLOBALSTAR M091         
1 37741U 11033C   26060.42710767 -.00000112  00000+0 -47946-4 0  9997
2 37741  51.9982 209.9828 0000964  94.4656 300.8838 12.62270145675670
GLOBALSTAR M085         
1 37742U 11033D   26060.50345093 -.00000109  00000+0 -30386-4 0  9999
2 37742  52.0119 160.9482 0000934 103.0844 339.7050 12.62269325676193
GLOBALSTAR M081         
1 37743U 11033E   26060.44964036 -.00000118  00000+0 -80136-4 0  9995
2 37743  51.9949 163.6700 0000851 117.9404 320.3591 12.62262534676337
GLOBALSTAR M089         
1 37744U 11033F   26060.49583935 -.00000084  00000+0  10804-3 0  9991
2 37744  51.9920 117.7102 0000449 151.9389 316.3830 12.62264435677183
GLOBALSTAR M084         
1 38040U 11080A   26060.20100779 -.00000101  00000+0  13019-4 0  9995
2 38040  52.0037 346.0321 0000321  94.3972  53.3669 12.62268150655127
GLOBALSTAR M080         
1 38041U 11080B   26060.17088382 -.00000089  00000+0  83660-4 0  9991
2 38041  52.0089 347.8052 0000928  53.6153  86.6330 12.62266743655240
GLOBALSTAR M082         
1 38042U 11080C   26060.11237179 -.00000067  00000+0  20407-3 0  9991
2 38042  52.0083 303.4748 0001062  66.9147  97.2238 12.62267786655945
GLOBALSTAR M092         
1 38043U 11080D   26060.40341812 -.00000104  00000+0 -47197-6 0  9995
2 38043  52.0099  32.9741 0000341  86.0776  81.3507 12.62264112654436
GLOBALSTAR M090         
1 38044U 11080E   26060.05620299 -.00000066  00000+0  21187-3 0  9990
2 38044  52.0123 297.5673 0000917  83.9143  63.7157 12.62271459656058
GLOBALSTAR M086         
1 38045U 11080F   26060.07987337 -.00000066  00000+0  21088-3 0  9992
2 38045  51.9900 297.6011 0001327 136.9701  12.5852 12.62283243656005
GLOBALSTAR M097         
1 39072U 13005A   26059.83830475 -.00000107  00000+0 -18369-4 0  9990
2 39072  52.0028 213.1557 0001079 105.7254 254.3732 12.62284422603227
GLOBALSTAR M093         
1 39073U 13005B   26060.36644957 -.00000110  00000+0 -35209-4 0  9995
2 39073  52.0092 204.8556 0001243 106.7391 253.3612 12.62273196603245
GLOBALSTAR M094         
1 39074U 13005C   26060.44578506 -.00000090  00000+0  77177-4 0  9997
2 39074  51.9950 118.8411 0000791 116.1485 243.9463 12.62266960604866
GLOBALSTAR M096         
1 39075U 13005D   26060.22136725 -.00000113  00000+0 -53358-4 0  9999
2 39075  52.0067 168.2385 0000937 106.6075 253.4895 12.62263304603759
GLOBALSTAR M078         
1 39076U 13005E   26060.51153629 -.00000085  00000+0  10737-3 0  9994
2 39076  51.9851 251.5153 0001491  58.9033 301.1980 12.62275860602415
GLOBALSTAR M095         
1 39077U 13005F   26059.98386506 -.00000082  00000+0  11963-3 0  9995
2 39077  52.0060 250.5738 0001368  81.4623 278.6399 12.62276073602203
GLOBALSTAR M087         
1 52888U 22064A   26060.31391918 -.00000105  00000+0 -64406-5 0  9996
2 52888  52.0013  30.8669 0000643  85.2943 274.7997 12.62266721177511
